[
    {
        "Altitude(m)": 610405.2962616179,
        "Argument of Periapsis(deg)": 0.0,
        "Eccentricity": 0.0,
        "Inclination(deg)": 60.0,
        "Latitude(deg)": 52.111197722636675,
        "Longitude(deg)": -17.522696242811136,
        "Mean Anomaly(deg)": -245.4545,
        "RAAN(deg)": 310.0,
        "Satellite Name": "Test1 1371",
        "Satellite Number": 1371,
        "Semi-Major Axis(m)": 6980739.136638005,
        "Time(s)": 0
    },
    {
        "Altitude(m)": 610321.8695942751,
        "Argument of Periapsis(deg)": 0.00010418945913296404,
        "Eccentricity": 0.0,
        "Inclination(deg)": 60.0,
        "Latitude(deg)": 51.74591389776116,
        "Longitude(deg)": -16.75380216731079,
        "Mean Anomaly(deg)": -244.83439385453815,
        "RAAN(deg)": 309.99957995086027,
        "Satellite Name": "Test1 1371",
        "Satellite Number": 1371,
        "Semi-Major Axis(m)": 6980739.136638005,
        "Time(s)": 10
    }
]